{
  "type": "FeatureCollection",
  "features": [
    {
      "type": "Feature",
      "properties": {
        "norad_id": 57400,
        "name": "TIANMU-1 08",
        "group": "weather",
        "lat": -37.26121751806236,
        "lon": 49.66816426122231,
        "alt_km": 488.5671601887625,
        "timestamp": "2025-12-20T14:38:01.600977+00:00",
        "meta_object_name": "TIANMU-1 08",
        "meta_object_id": "2023-101B",
        "meta_epoch": "2025-12-20T05:22:07.796640",
        "meta_mean_motion": 15.28153684,
        "meta_eccentricity": 0.00072621,
        "meta_inclination": 97.2856,
        "meta_ra_of_asc_node": 43.7055,
        "meta_arg_of_pericenter": 62.9819,
        "meta_mean_anomaly": 297.2162,
        "meta_ephemeris_type": 0,
        "meta_classification_type": "U",
        "meta_norad_cat_id": 57400,
        "meta_element_set_no": 999,
        "meta_rev_at_epoch": 13429,
        "meta_bstar": 0.00019103223,
        "meta_mean_motion_dot": 5.173e-05,
        "meta_mean_motion_ddot": 0,
        "tle_line1": "1 57400U 23101B   25354.22370135  .00005173  00000+0  19103-3 0  9997",
        "tle_line2": "2 57400  97.2856  43.7055 0007262  62.9819 297.2162 15.28153684134292"
      },
      "geometry": {
        "type": "Point",
        "coordinates": [
          49.66816426122231,
          -37.26121751806236
        ]
      }
    },
    {
      "type": "Feature",
      "properties": {
        "norad_id": 57401,
        "name": "TIANMU-1 09",
        "group": "weather",
        "lat": 35.64011910185728,
        "lon": 38.332354040530944,
        "alt_km": 474.8642148150475,
        "timestamp": "2025-12-20T14:38:01.600988+00:00",
        "meta_object_name": "TIANMU-1 09",
        "meta_object_id": "2023-101C",
        "meta_epoch": "2025-12-20T06:37:10.238016",
        "meta_mean_motion": 15.28187131,
        "meta_eccentricity": 0.00065165,
        "meta_inclination": 97.2812,
        "meta_ra_of_asc_node": 43.2659,
        "meta_arg_of_pericenter": 63.377,
        "meta_mean_anomaly": 296.8137,
        "meta_ephemeris_type": 0,
        "meta_classification_type": "U",
        "meta_norad_cat_id": 57401,
        "meta_element_set_no": 999,
        "meta_rev_at_epoch": 13430,
        "meta_bstar": 0.00019185157,
        "meta_mean_motion_dot": 5.2e-05,
        "meta_mean_motion_ddot": 0,
        "tle_line1": "1 57401U 23101C   25354.27581294  .00005200  00000+0  19185-3 0  9994",
        "tle_line2": "2 57401  97.2812  43.2659 0006516  63.3770 296.8137 15.28187131134305"
      },
      "geometry": {
        "type": "Point",
        "coordinates": [
          38.332354040530944,
          35.64011910185728
        ]
      }
    },
    {
      "type": "Feature",
      "properties": {
        "norad_id": 57402,
        "name": "TIANMU-1 10",
        "group": "weather",
        "lat": -27.70783058226,
        "lon": -139.4041750904651,
        "alt_km": 491.9028146697365,
        "timestamp": "2025-12-20T14:38:01.600998+00:00",
        "meta_object_name": "TIANMU-1 10",
        "meta_object_id": "2023-101D",
        "meta_epoch": "2025-12-20T05:52:12.279648",
        "meta_mean_motion": 15.28178118,
        "meta_eccentricity": 0.00082496,
        "meta_inclination": 97.2893,
        "meta_ra_of_asc_node": 44.0932,
        "meta_arg_of_pericenter": 61.785,
        "meta_mean_anomaly": 298.4222,
        "meta_ephemeris_type": 0,
        "meta_classification_type": "U",
        "meta_norad_cat_id": 57402,
        "meta_element_set_no": 999,
        "meta_rev_at_epoch": 13429,
        "meta_bstar": 0.00018771643,
        "meta_mean_motion_dot": 5.086e-05,
        "meta_mean_motion_ddot": 0,
        "tle_line1": "1 57402U 23101D   25354.24458657  .00005086  00000+0  18772-3 0  9991",
        "tle_line2": "2 57402  97.2893  44.0932 0008249  61.7850 298.4222 15.28178118134290"
      },
      "geometry": {
        "type": "Point",
        "coordinates": [
          -139.4041750904651,
          -27.70783058226
        ]
      }
    },
    {
      "type": "Feature",
      "properties": {
        "norad_id": 57490,
        "name": "FENGYUN 3F",
        "group": "weather",
        "lat": -71.81194388500731,
        "lon": 90.57951576902012,
        "alt_km": 833.5122070590724,
        "timestamp": "2025-12-20T14:38:01.601008+00:00",
        "meta_object_name": "FENGYUN 3F",
        "meta_object_id": "2023-111A",
        "meta_epoch": "2025-12-20T06:31:32.242944",
        "meta_mean_motion": 14.19895398,
        "meta_eccentricity": 7.486e-05,
        "meta_inclination": 98.7074,
        "meta_ra_of_asc_node": 62.4435,
        "meta_arg_of_pericenter": 113.6225,
        "meta_mean_anomaly": 246.503,
        "meta_ephemeris_type": 0,
        "meta_classification_type": "U",
        "meta_norad_cat_id": 57490,
        "meta_element_set_no": 999,
        "meta_rev_at_epoch": 12347,
        "meta_bstar": 4.6209086e-05,
        "meta_mean_motion_dot": 5.4e-07,
        "meta_mean_motion_ddot": 0,
        "tle_line1": "1 57490U 23111A   25354.27190096  .00000054  00000+0  46209-4 0  9999",
        "tle_line2": "2 57490  98.7074  62.4435 0000748 113.6225 246.5030 14.19895398123479"
      },
      "geometry": {
        "type": "Point",
        "coordinates": [
          90.57951576902012,
          -71.81194388500731
        ]
      }
    },
    {
      "type": "Feature",
      "properties": {
        "norad_id": 58584,
        "name": "ARKTIKA-M 2",
        "group": "weather",
        "lat": 60.06896939055593,
        "lon": -67.31789681206875,
        "alt_km": 34998.31924798487,
        "timestamp": "2025-12-20T14:38:01.601020+00:00",
        "meta_object_name": "ARKTIKA-M 2",
        "meta_object_id": "2023-198A",
        "meta_epoch": "2025-12-19T19:22:17.366880",
        "meta_mean_motion": 2.00602866,
        "meta_eccentricity": 0.68654082,
        "meta_inclination": 63.225,
        "meta_ra_of_asc_node": 174.1215,
        "meta_arg_of_pericenter": 268.0761,
        "meta_mean_anomaly": 18.8406,
        "meta_ephemeris_type": 0,
        "meta_classification_type": "U",
        "meta_norad_cat_id": 58584,
        "meta_element_set_no": 999,
        "meta_rev_at_epoch": 1472,
        "meta_bstar": 0,
        "meta_mean_motion_dot": 2e-06,
        "meta_mean_motion_ddot": 0,
        "tle_line1": "1 58584U 23198A   25353.80714545  .00000200  00000+0  00000+0 0  9995",
        "tle_line2": "2 58584  63.2250 174.1215 6865408 268.0761  18.8406  2.00602866 14729"
      },
      "geometry": {
        "type": "Point",
        "coordinates": [
          -67.31789681206875,
          60.06896939055593
        ]
      }
    },
    {
      "type": "Feature",
      "properties": {
        "norad_id": 58645,
        "name": "TIANMU-1 11",
        "group": "weather",
        "lat": -70.31570782892045,
        "lon": 35.27434951495148,
        "alt_km": 493.9432641789799,
        "timestamp": "2025-12-20T14:38:01.601032+00:00",
        "meta_object_name": "TIANMU-1 11",
        "meta_object_id": "2023-205A",
        "meta_epoch": "2025-12-20T07:04:19.143264",
        "meta_mean_motion": 15.24684785,
        "meta_eccentricity": 0.00075468,
        "meta_inclination": 97.3595,
        "meta_ra_of_asc_node": 13.7853,
        "meta_arg_of_pericenter": 278.3838,
        "meta_mean_anomaly": 81.6544,
        "meta_ephemeris_type": 0,
        "meta_classification_type": "U",
        "meta_norad_cat_id": 58645,
        "meta_element_set_no": 999,
        "meta_rev_at_epoch": 11024,
        "meta_bstar": 0.00017524783,
        "meta_mean_motion_dot": 4.263e-05,
        "meta_mean_motion_ddot": 0,
        "tle_line1": "1 58645U 23205A   25354.29466601  .00004263  00000+0  17525-3 0  9990",
        "tle_line2": "2 58645  97.3595  13.7853 0007546 278.3838  81.6544 15.24684785110242"
      },
      "geometry": {
        "type": "Point",
        "coordinates": [
          35.27434951495148,
          -70.31570782892045
        ]
      }
    },
    {
      "type": "Feature",
      "properties": {
        "norad_id": 58646,
        "name": "TIANMU-1 12",
        "group": "weather",
        "lat": 42.28010984183405,
        "lon": -159.35417013270305,
        "alt_km": 490.59569258367173,
        "timestamp": "2025-12-20T14:38:01.601042+00:00",
        "meta_object_name": "TIANMU-1 12",
        "meta_object_id": "2023-205B",
        "meta_epoch": "2025-12-20T07:43:57.152928",
        "meta_mean_motion": 15.24570009,
        "meta_eccentricity": 0.00058101,
        "meta_inclination": 97.3582,
        "meta_ra_of_asc_node": 13.6153,
        "meta_arg_of_pericenter": 256.8194,
        "meta_mean_anomaly": 103.2396,
        "meta_ephemeris_type": 0,
        "meta_classification_type": "U",
        "meta_norad_cat_id": 58646,
        "meta_element_set_no": 999,
        "meta_rev_at_epoch": 11023,
        "meta_bstar": 0.00018410409,
        "meta_mean_motion_dot": 4.466e-05,
        "meta_mean_motion_ddot": 0,
        "tle_line1": "1 58646U 23205B   25354.32218927  .00004466  00000+0  18410-3 0  9990",
        "tle_line2": "2 58646  97.3582  13.6153 0005810 256.8194 103.2396 15.24570009110237"
      },
      "geometry": {
        "type": "Point",
        "coordinates": [
          -159.35417013270305,
          42.28010984183405
        ]
      }
    }
  ]
}